{
  "links" : {
    "next" : "https://api.nasa.gov/neo/rest/v1/feed?start_date=1998-01-23&end_date=1998-01-23&detailed=true&api_key=t0TVs3DtDT2H8Oy2Zy8m2eVrNsAVKAexjcZXUckd",
    "prev" : "https://api.nasa.gov/neo/rest/v1/feed?start_date=1998-01-21&end_date=1998-01-21&detailed=true&api_key=t0TVs3DtDT2H8Oy2Zy8m2eVrNsAVKAexjcZXUckd",
    "self" : "https://api.nasa.gov/neo/rest/v1/feed?start_date=1998-01-22&end_date=1998-01-22&detailed=true&api_key=t0TVs3DtDT2H8Oy2Zy8m2eVrNsAVKAexjcZXUckd"
  },
  "element_count" : 6,
  "near_earth_objects" : {
    "1998-01-22" : [ {
      "links" : {
        "self" : "https://api.nasa.gov/neo/rest/v1/neo/2192559?api_key=t0TVs3DtDT2H8Oy2Zy8m2eVrNsAVKAexjcZXUckd"
      },
      "neo_reference_id" : "2192559",
      "name" : "192559 (1998 VO)",
      "nasa_jpl_url" : "http://ssd.jpl.nasa.gov/sbdb.cgi?sstr=2192559",
      "absolute_magnitude_h" : 20.1,
      "estimated_diameter" : {
        "kilometers" : {
          "estimated_diameter_min" : 0.2538370294,
          "estimated_diameter_max" : 0.5675968529
        },
        "meters" : {
          "estimated_diameter_min" : 253.8370293645,
          "estimated_diameter_max" : 567.5968528656
        },
        "miles" : {
          "estimated_diameter_min" : 0.1577269688,
          "estimated_diameter_max" : 0.3526882241
        },
        "feet" : {
          "estimated_diameter_min" : 832.7986794202,
          "estimated_diameter_max" : 1862.1944587557
        }
      },
      "is_potentially_hazardous_asteroid" : true,
      "close_approach_data" : [ {
        "close_approach_date" : "1998-01-22",
        "epoch_date_close_approach" : 885456000000,
        "relative_velocity" : {
          "kilometers_per_second" : "7.5533021758",
          "kilometers_per_hour" : "27191.8878329916",
          "miles_per_hour" : "16895.9816371164"
        },
        "miss_distance" : {
          "astronomical" : "0.3841629457",
          "lunar" : "149.4393768311",
          "kilometers" : "57469956",
          "miles" : "35710176"
        },
        "orbiting_body" : "Earth"
      } ],
      "orbital_data" : {
        "orbit_id" : "61",
        "orbit_determination_date" : "2017-04-21 06:21:52",
        "orbit_uncertainty" : "0",
        "minimum_orbit_intersection" : ".0260273",
        "jupiter_tisserand_invariant" : "5.714",
        "epoch_osculation" : "2457385.5",
        "eccentricity" : ".2265329221774752",
        "semi_major_axis" : "1.074628734983726",
        "inclination" : "10.06055962006335",
        "ascending_node_longitude" : "228.1823463610109",
        "orbital_period" : "406.8985110402536",
        "perihelion_distance" : ".8311899473919788",
        "perihelion_argument" : "75.93656897393657",
        "aphelion_distance" : "1.318067522575473",
        "perihelion_time" : "2457546.088092298630",
        "mean_anomaly" : "217.9210499450867",
        "mean_motion" : ".8847415024440479",
        "equinox" : "J2000"
      }
    }, {
      "links" : {
        "self" : "https://api.nasa.gov/neo/rest/v1/neo/2194268?api_key=t0TVs3DtDT2H8Oy2Zy8m2eVrNsAVKAexjcZXUckd"
      },
      "neo_reference_id" : "2194268",
      "name" : "194268 (2001 UY4)",
      "nasa_jpl_url" : "http://ssd.jpl.nasa.gov/sbdb.cgi?sstr=2194268",
      "absolute_magnitude_h" : 18.2,
      "estimated_diameter" : {
        "kilometers" : {
          "estimated_diameter_min" : 0.6089126221,
          "estimated_diameter_max" : 1.3615700154
        },
        "meters" : {
          "estimated_diameter_min" : 608.9126221057,
          "estimated_diameter_max" : 1361.5700153859
        },
        "miles" : {
          "estimated_diameter_min" : 0.3783606449,
          "estimated_diameter_max" : 0.846040122
        },
        "feet" : {
          "estimated_diameter_min" : 1997.7448871092,
          "estimated_diameter_max" : 4467.0933692788
        }
      },
      "is_potentially_hazardous_asteroid" : true,
      "close_approach_data" : [ {
        "close_approach_date" : "1998-01-22",
        "epoch_date_close_approach" : 885456000000,
        "relative_velocity" : {
          "kilometers_per_second" : "43.7899331054",
          "kilometers_per_hour" : "157643.7591793928",
          "miles_per_hour" : "97953.70136344"
        },
        "miss_distance" : {
          "astronomical" : "0.4978906553",
          "lunar" : "193.6794586182",
          "kilometers" : "74483384",
          "miles" : "46281828"
        },
        "orbiting_body" : "Earth"
      } ],
      "orbital_data" : {
        "orbit_id" : "67",
        "orbit_determination_date" : "2017-04-06 09:25:38",
        "orbit_uncertainty" : "0",
        "minimum_orbit_intersection" : ".0260591",
        "jupiter_tisserand_invariant" : "4.230",
        "epoch_osculation" : "2458000.5",
        "eccentricity" : ".787385250618907",
        "semi_major_axis" : "1.452969205978564",
        "inclination" : "5.43606601832941",
        "ascending_node_longitude" : "160.8008968085891",
        "orbital_period" : "639.709855945518",
        "perihelion_distance" : ".3089226835875781",
        "perihelion_argument" : "107.6929342689394",
        "aphelion_distance" : "2.597015728369549",
        "perihelion_time" : "2457909.671926624543",
        "mean_anomaly" : "51.11396379353155",
        "mean_motion" : ".5627551250838631",
        "equinox" : "J2000"
      }
    }, {
      "links" : {
        "self" : "https://api.nasa.gov/neo/rest/v1/neo/3766434?api_key=t0TVs3DtDT2H8Oy2Zy8m2eVrNsAVKAexjcZXUckd"
      },
      "neo_reference_id" : "3766434",
      "name" : "(2017 AH13)",
      "nasa_jpl_url" : "http://ssd.jpl.nasa.gov/sbdb.cgi?sstr=3766434",
      "absolute_magnitude_h" : 21.2,
      "estimated_diameter" : {
        "kilometers" : {
          "estimated_diameter_min" : 0.1529519353,
          "estimated_diameter_max" : 0.3420109247
        },
        "meters" : {
          "estimated_diameter_min" : 152.9519353442,
          "estimated_diameter_max" : 342.0109247198
        },
        "miles" : {
          "estimated_diameter_min" : 0.095039897,
          "estimated_diameter_max" : 0.2125156703
        },
        "feet" : {
          "estimated_diameter_min" : 501.8108275547,
          "estimated_diameter_max" : 1122.0831222578
        }
      },
      "is_potentially_hazardous_asteroid" : false,
      "close_approach_data" : [ {
        "close_approach_date" : "1998-01-22",
        "epoch_date_close_approach" : 885456000000,
        "relative_velocity" : {
          "kilometers_per_second" : "24.6253739918",
          "kilometers_per_hour" : "88651.3463705322",
          "miles_per_hour" : "55084.4990822899"
        },
        "miss_distance" : {
          "astronomical" : "0.207553719",
          "lunar" : "80.7383956909",
          "kilometers" : "31049594",
          "miles" : "19293324"
        },
        "orbiting_body" : "Earth"
      } ],
      "orbital_data" : {
        "orbit_id" : "11",
        "orbit_determination_date" : "2017-04-06 08:21:05",
        "orbit_uncertainty" : "5",
        "minimum_orbit_intersection" : ".12968",
        "jupiter_tisserand_invariant" : "5.184",
        "epoch_osculation" : "2458000.5",
        "eccentricity" : ".5550628217649302",
        "semi_major_axis" : "1.167285944898",
        "inclination" : "22.7301469612087",
        "ascending_node_longitude" : "313.4670189773678",
        "orbital_period" : "460.6428253633982",
        "perihelion_distance" : ".5193689145163735",
        "perihelion_argument" : "48.98966014104454",
        "aphelion_distance" : "1.815202975279627",
        "perihelion_time" : "2458150.642292501452",
        "mean_anomaly" : "242.6613108369114",
        "mean_motion" : ".7815165681045793",
        "equinox" : "J2000"
      }
    } ]
  }
}